NORAD_CAT_ID,OBJECT_NAME,OBJECT_TYPE,EPOCH,MEAN_MOTION,ECCENTRICITY,INCLINATION,RA_OF_ASC_NODE,ARG_OF_PERICENTER,MEAN_ANOMALY,BSTAR,MEAN_MOTION_DOT,MEAN_MOTION_DDOT,TLE_LINE0,TLE_LINE1,TLE_LINE2,SEMIMAJOR_AXIS,PERIOD,APOGEE,PERIGEE,DECAYED
52609.0,STARLINK-3997,PAYLOAD,2023-04-07 02:36:34,15.08837888,0.0001272,53.2171,31.6265,93.0132,267.1006,6.73e-05,7.83e-06,0.0,0 STARLINK-3997,1 52609U 22052M   23097.10872697  .00000783  00000-0  67300-4 0  9992,2 52609  53.2171  31.6265 0001272  93.0132 267.1006 15.08837888 50065,6917.887,95.438,540.632,538.872,0.0
52609.0,STARLINK-3997,PAYLOAD,2023-04-07 05:47:20,15.08841578,0.0001195,53.2169,31.0304,90.9524,269.1605,0.00010391,1.366e-05,0.0,0 STARLINK-3997,1 52609U 22052M   23097.24120536  .00001366  00000-0  10391-3 0  9990,2 52609  53.2169  31.0304 0001195  90.9524 269.1605 15.08841578 49713,6917.876,95.437,540.567,538.914,0.0
52609.0,STARLINK-3997,PAYLOAD,2023-04-08 05:38:06,15.08852946,0.0001112,53.2176,26.5711,99.0028,261.109,0.00017924,2.567e-05,0.0,0 STARLINK-3997,1 52609U 22052M   23098.23479933  .00002567  00000-0  17924-3 0  9991,2 52609  53.2176  26.5711 0001112  99.0028 261.1090 15.08852946 50230,6917.841,95.437,540.475,538.937,0.0
52609.0,STARLINK-3997,PAYLOAD,2023-04-09 00:42:45,15.08835922,0.0001355,53.2178,23.001,95.4041,264.7106,8.0399e-05,9.92e-06,0.0,0 STARLINK-3997,1 52609U 22052M   23099.02969178  .00000992  00000-0  80399-4 0  9991,2 52609  53.2178  23.0010 0001355  95.4041 264.7106 15.08835922 50355,6917.893,95.438,540.695,538.82,0.0
52609.0,STARLINK-3997,PAYLOAD,2023-04-09 05:28:54,15.08839999,0.0001352,53.2179,22.109,93.3078,266.8069,0.00013324,1.833e-05,0.0,0 STARLINK-3997,1 52609U 22052M   23099.22840991  .00001833  00000-0  13324-3 0  9992,2 52609  53.2179  22.1090 0001352  93.3078 266.8069 15.08839999 50010,6917.88,95.438,540.681,538.81,0.0
52609.0,STARLINK-3997,PAYLOAD,2023-04-10 00:33:32,15.08846635,0.0001455,53.218,18.5405,94.5527,265.5632,0.00016046,2.267e-05,0.0,0 STARLINK-3997,1 52609U 22052M   23100.02328808  .00002267  00000-0  16046-3 0  9997,2 52609  53.2180  18.5405 0001455  94.5527 265.5632 15.08846635 50508,6917.86,95.437,540.732,538.719,0.0
52609.0,STARLINK-3997,PAYLOAD,2023-04-10 03:44:18,15.08851557,0.0001411,53.2174,17.9464,99.4007,260.7145,0.00027804,4.141e-05,0.0,0 STARLINK-3997,1 52609U 22052M   23100.15576643  .00004141  00000-0  27804-3 0  9990,2 52609  53.2174  17.9464 0001411  99.4007 260.7145 15.08851557 50154,6917.845,95.437,540.686,538.734,0.0
52609.0,STARLINK-3997,PAYLOAD,2023-04-11 00:24:19,15.08847348,0.0001473,53.2177,14.0807,95.8668,264.2492,0.00018382,2.639e-05,0.0,0 STARLINK-3997,1 52609U 22052M   23101.01688738  .00002639  00000-0  18382-3 0  9996,2 52609  53.2177  14.0807 0001473  95.8668 264.2492 15.08847348 50659,6917.858,95.437,540.742,538.704,0.0
52609.0,STARLINK-3997,PAYLOAD,2023-04-11 03:35:05,15.08853772,0.0001473,53.2177,13.4865,92.9186,267.1975,0.00033545,5.057e-05,0.0,0 STARLINK-3997,1 52609U 22052M   23101.14936645  .00005057  00000-0  33545-3 0  9998,2 52609  53.2177  13.4865 0001473  92.9186 267.1975 15.08853772 50307,6917.838,95.437,540.722,538.684,0.0
52609.0,STARLINK-3997,PAYLOAD,2023-04-11 17:53:33,15.08840128,0.0001291,53.2172,10.8106,93.8758,266.2382,0.00010673,1.411e-05,0.0,0 STARLINK-3997,1 52609U 22052M   23101.74553025  .00001411  00000-0  10673-3 0  9998,2 52609  53.2172  10.8106 0001291  93.8758 266.2382 15.08840128 50767,6917.88,95.438,540.638,538.852,0.0
52609.0,STARLINK-3997,PAYLOAD,2023-04-12 00:15:06,15.08838885,0.0001182,53.217,9.6216,94.1911,265.9216,0.00026567,3.943e-05,0.0,0 STARLINK-3997,1 52609U 22052M   23102.01049080  .00003943  00000-0  26567-3 0  9991,2 52609  53.2170   9.6216 0001182  94.1911 265.9216 15.08838885 50430,6917.884,95.438,540.566,538.931,0.0
52609.0,STARLINK-3997,PAYLOAD,2023-04-13 00:05:53,15.08837841,9.45e-05,53.2167,5.1622,73.831,286.2786,0.00012379,1.683e-05,0.0,0 STARLINK-3997,1 52609U 22052M   23103.00409633  .00001683  00000-0  12379-3 0  9990,2 52609  53.2167   5.1622 0000945  73.8310 286.2786 15.08837841 50957,6917.887,95.438,540.406,539.098,0.0
52609.0,STARLINK-3997,PAYLOAD,2023-04-13 03:16:39,15.0884592,0.0001095,53.2171,4.5661,79.0437,281.0678,0.00023826,3.507e-05,0.0,0 STARLINK-3997,1 52609U 22052M   23103.13657298  .00003507  00000-0  23826-3 0  9992,2 52609  53.2171   4.5661 0001095  79.0437 281.0678 15.08845920 50605,6917.862,95.437,540.485,538.97,0.0
52609.0,STARLINK-3997,PAYLOAD,2023-04-13 20:45:54,15.08845177,0.0001016,53.2167,1.293,85.1536,274.9572,0.00025052,3.702e-05,0.0,0 STARLINK-3997,1 52609U 22052M   23103.86521470  .00003702  00000-0  25052-3 0  9994,2 52609  53.2167   1.2930 0001016  85.1536 274.9572 15.08845177 51085,6917.865,95.437,540.432,539.027,0.0
52609.0,STARLINK-3997,PAYLOAD,2023-04-14 03:07:26,15.08856498,9.77e-05,53.2169,0.1059,87.6891,272.4213,0.00049428,7.591e-05,0.0,0 STARLINK-3997,1 52609U 22052M   23104.13017027  .00007591  00000-0  49428-3 0  9996,2 52609  53.2169   0.1059 0000977  87.6891 272.4213 15.08856498 50759,6917.83,95.437,540.371,539.019,0.0
52609.0,STARLINK-3997,PAYLOAD,2023-04-14 17:25:55,15.08839171,9.82e-05,53.2165,357.4264,83.8848,276.2256,4.8788e-05,4.89e-06,0.0,0 STARLINK-3997,1 52609U 22052M   23104.72633643  .00000489  00000-0  48788-4 0  9997,2 52609  53.2165 357.4264 0000982  83.8848 276.2256 15.08839171 51217,6917.883,95.438,540.427,539.069,0.0
52609.0,STARLINK-3997,PAYLOAD,2023-04-15 01:22:50,15.08845644,0.0001126,53.2176,355.9426,83.6158,276.4962,0.00019181,2.767e-05,0.0,0 STARLINK-3997,1 52609U 22052M   23105.05753470  .00002767  00000-0  19181-3 0  9990,2 52609  53.2176 355.9426 0001126  83.6158 276.4962 15.08845644 50896,6917.863,95.437,540.507,538.949,0.0
52609.0,STARLINK-3997,PAYLOAD,2023-04-15 20:27:28,15.08842005,0.000123,53.218,352.3765,91.4114,268.7019,0.00012548,1.71e-05,0.0,0 STARLINK-3997,1 52609U 22052M   23105.85241693  .00001710  00000-0  12548-3 0  9994,2 52609  53.2180 352.3765 0001230  91.4114 268.7019 15.08842005 51013,6917.874,95.437,540.59,538.888,0.0
52609.0,STARLINK-3997,PAYLOAD,2023-04-16 02:49:00,15.08858709,0.0001136,53.2171,351.1851,100.013,260.099,0.0008952,0.00013995,0.0,0 STARLINK-3997,1 52609U 22052M   23106.11737239  .00013995  00000-0  89520-3 0  9992,2 52609  53.2171 351.1851 0001136 100.0130 260.0990 15.08858709 51051,6917.823,95.436,540.474,538.902,0.0
52609.0,STARLINK-3997,PAYLOAD,2023-04-16 15:32:06,15.0885053,0.0001658,53.2159,348.8051,103.944,256.1737,0.0001782,2.55e-05,0.0,0 STARLINK-3997,1 52609U 22052M   23106.64729522  .00002550  00000-0  17820-3 0  9995,2 52609  53.2159 348.8051 0001658 103.9440 256.1737 15.08850530 51506,6917.848,95.437,540.86,538.566,0.0
52609.0,STARLINK-3997,PAYLOAD,2023-04-16 21:53:38,15.08843576,0.0001313,53.2158,347.6151,119.8203,240.292,0.000335,5.048e-05,0.0,0 STARLINK-3997,1 52609U 22052M   23106.91225505  .00005048  00000-0  33500-3 0  9995,2 52609  53.2158 347.6151 0001313 119.8203 240.2920 15.08843576 51177,6917.869,95.437,540.643,538.826,0.0
52609.0,STARLINK-3997,PAYLOAD,2023-04-17 01:04:25,15.08847986,0.0001061,53.216,347.0197,109.3765,250.7342,0.00041238,6.283e-05,0.0,0 STARLINK-3997,1 52609U 22052M   23107.04473445  .00006283  00000-0  41238-3 0  9997,2 52609  53.2160 347.0197 0001061 109.3765 250.7342 15.08847986 51196,6917.856,95.437,540.455,538.987,0.0
52609.0,STARLINK-3997,PAYLOAD,2023-04-17 15:22:53,15.0883503,0.0001267,53.2173,344.3473,90.5891,269.5247,0.00015479,2.176e-05,0.0,0 STARLINK-3997,1 52609U 22052M   23107.64090209  .00002176  00000-0  15479-3 0  9991,2 52609  53.2173 344.3473 0001267  90.5891 269.5247 15.08835030 51656,6917.896,95.438,540.637,538.884,0.0
52609.0,STARLINK-3997,PAYLOAD,2023-04-17 21:44:26,15.08839415,0.0001235,53.2161,343.1564,94.3271,265.7862,0.00017551,2.506e-05,0.0,0 STARLINK-3997,1 52609U 22052M   23107.90586068  .00002506  00000-0  17551-3 0  9993,2 52609  53.2161 343.1564 0001235  94.3271 265.7862 15.08839415 51326,6917.882,95.438,540.602,538.893,0.0
52609.0,STARLINK-3997,PAYLOAD,2023-04-18 00:55:12,15.08841838,0.0001215,53.2163,342.5618,89.3192,270.7939,0.00054375,8.377e-05,0.0,0 STARLINK-3997,1 52609U 22052M   23108.03834213  .00008377  00000-0  54375-3 0  9993,2 52609  53.2163 342.5618 0001215  89.3192 270.7939 15.08841838 51340,6917.875,95.437,540.58,538.899,0.0
52609.0,STARLINK-3997,PAYLOAD,2023-04-19 00:45:59,15.08853167,0.0001152,53.2162,338.1002,95.6718,264.4406,0.00067636,0.00010497,0.0,0 STARLINK-3997,1 52609U 22052M   23109.03193995  .00010497  00000-0  67636-3 0  9999,2 52609  53.2162 338.1002 0001152  95.6718 264.4406 15.08853167 51865,6917.84,95.437,540.502,538.908,0.0
52609.0,STARLINK-3997,PAYLOAD,2023-04-19 21:26:00,15.08851231,0.000171,53.216,334.2355,86.6239,273.4949,0.00040162,6.111e-05,0.0,0 STARLINK-3997,1 52609U 22052M   23109.89306030  .00006111  00000-0  40162-3 0  9992,2 52609  53.2160 334.2355 0001710  86.6239 273.4949 15.08851231 51625,6917.846,95.437,540.894,538.528,0.0
52609.0,STARLINK-3997,PAYLOAD,2023-04-20 00:36:46,15.08852062,0.0001354,53.2163,333.6402,87.4747,272.64,0.00048286,7.408e-05,0.0,0 STARLINK-3997,1 52609U 22052M   23110.02553953  .00007408  00000-0  48286-3 0  9992,2 52609  53.2163 333.6402 0001354  87.4747 272.6400 15.08852062 52011,6917.844,95.437,540.645,538.772,0.0
52609.0,STARLINK-3997,PAYLOAD,2023-04-20 21:16:47,15.08842457,0.000106,53.2163,329.7736,101.2214,258.8897,0.00026351,3.909e-05,0.0,0 STARLINK-3997,1 52609U 22052M   23110.88666034  .00003909  00000-0  26351-3 0  9992,2 52609  53.2163 329.7736 0001060 101.2214 258.8897 15.08842457 52142,6917.873,95.437,540.471,539.005,0.0
52609.0,STARLINK-3997,PAYLOAD,2023-04-22 00:18:20,15.08845424,0.0001053,53.217,324.7189,81.9026,278.2085,0.000223,3.264e-05,0.0,0 STARLINK-3997,1 52609U 22052M   23112.01274102  .00003264  00000-0  22300-3 0  9994,2 52609  53.2170 324.7189 0001053  81.9026 278.2085 15.08845424 52315,6917.864,95.437,540.457,539.0,0.0
